STARLINK-3176           
1 51106U 22005C   22041.70024854  .00008074  00000+0  61840-4 0  9992
2 51106  53.2187 162.3718 0002919  38.3236 321.7991 15.73222811  4889
STARLINK-3368           
1 51107U 22005D   22041.70103969  .00050164  00000+0  35900-3 0  9992
2 51107  53.2179 162.3752 0001800  27.0319 333.0795 15.73245749  4887
STARLINK-3362           
1 51108U 22005E   22041.76435142  .00038807  00000+0  27926-3 0  9999
2 51108  53.2169 162.0604 0001943  27.7675 332.3448 15.73231642  4884
STARLINK-3358           
1 51109U 22005F   22041.57449171 -.00140061  00000+0 -10043-2 0  9995
2 51109  53.2154 162.2605 0001822 354.4910   5.6090 15.73334709  3532
STARLINK-3344           
1 51110U 22005G   22041.58335648  .00016285  00000+0  12000-3 0  9995
2 51110  53.2161 162.9550 0002133  24.2828  31.3502 15.73243173  4869
STARLINK-3173           
1 51111U 22005H   22041.58335648  .00003951  00000+0  32520-4 0  9992
2 51111  53.2160 162.9456 0002266  27.3474  32.8017 15.73232368  4863
STARLINK-3374           
1 51112U 22005J   22041.70046245 -.00004255  00000+0 -25890-4 0  9991
2 51112  53.2181 162.3721 0002200  42.4835 317.6355 15.73208363  4882
STARLINK-3372           
1 51113U 22005K   22041.58335648  .00002532  00000+0  22427-4 0  9993
2 51113  53.2164 162.9492 0002076  28.8115  29.4286 15.73239434  4867
STARLINK-3375           
1 51114U 22005L   22041.70070370  .00014870  00000+0  10999-3 0  9994
2 51114  53.2166 162.3735 0002448  35.7336 324.3848 15.73239830  4882
STARLINK-3397           
1 51115U 22005M   22041.69993203  .00036664  00000+0  26404-3 0  9995
2 51115  53.2170 162.3683 0001986  37.6489 322.4670 15.73241026  4888
STARLINK-3243           
1 51116U 22005N   22041.83335648  .00024131  00000+0  17571-3 0  9996
2 51116  53.2159 161.7157 0002151  21.6303  12.1474 15.73218592  4908
STARLINK-3391           
1 51117U 22005P   22041.76300513  .00036653  00000+0  26384-3 0  9996
2 51117  53.2184 162.0517 0002596  22.3128 337.8005 15.73250543  4894
STARLINK-3394           
1 51118U 22005Q   22041.70002530  .00014114  00000+0  10459-3 0  9993
2 51118  53.2174 162.3689 0001670  27.4734 332.6374 15.73250389  4887
STARLINK-3390           
1 51119U 22005R   22041.58335648  .00002157  00000+0  19764-4 0  9992
2 51119  53.2172 162.9384 0002054  33.4729  29.1957 15.73237094  4863
STARLINK-3398           
1 51120U 22005S   22041.58335648  .00001591  00000+0  15738-4 0  9992
2 51120  53.2162 162.9376 0002087  33.1329  30.7809 15.73240213  4865
STARLINK-3399           
1 51121U 22005T   22041.83335648  .00010752  00000+0  80875-4 0  9994
2 51121  53.2178 161.7056 0002315  15.8595  22.3102 15.73217212  4902
STARLINK-3373           
1 51122U 22005U   22041.58335648  .00002983  00000+0  25633-4 0  9995
2 51122  53.2181 162.9393 0002067  31.8216  31.4631 15.73237457  4862
STARLINK-3392           
1 51123U 22005V   22041.76257379  .00150641  00000+0  10581-2 0  9999
2 51123  53.2168 162.0474 0002086  19.2795 340.8304 15.73210381  4863
STARLINK-3389           
1 51124U 22005W   22041.76244808  .00022954  00000+0  16718-3 0  9997
2 51124  53.2185 162.0469 0002256  51.3582 308.7640 15.73247409  4897
STARLINK-3387           
1 51125U 22005X   22041.58335648  .00002109  00000+0  19407-4 0  9990
2 51125  53.2164 162.9306 0001968  29.6450  37.4287 15.73248180  4862
STARLINK-3386           
1 51126U 22005Y   22041.58335648 -.00013394  00000+0 -91003-4 0  9993
2 51126  53.2164 162.9339 0001986  26.8916  38.9693 15.73238078  4867
STARLINK-3370           
1 51127U 22005Z   22041.58335648  .00013553  00000+0  10082-3 0  9996
2 51127  53.2171 162.9292 0002147  25.2724  41.2592 15.73201252  4863
STARLINK-3400           
1 51128U 22005AA  22041.76145140  .00054159  00000+0  38691-3 0  9996
2 51128  53.2186 162.0405 0002605  20.3198 339.7925 15.73252771  4897
STARLINK-3396           
1 51129U 22005AB  22041.83348423 -.00300109  00000+0 -16159-2 0  9999
2 51129  53.2209 160.2992 0001388  32.0437 328.0671 15.80252621  4923
STARLINK-3395           
1 51130U 22005AC  22041.76200635  .00039798  00000+0  28616-3 0  9998
2 51130  53.2181 162.0436 0001525  24.5255 335.5837 15.73238993  4895
STARLINK-3388           
1 51131U 22005AD  22041.58335648  .00014609  00000+0  10825-3 0  9999
2 51131  53.2173 162.9235 0002101  37.8549  31.6741 15.73216852  4862
STARLINK-3393           
1 51132U 22005AE  22041.83335648  .00062861  00000+0  44899-3 0  9999
2 51132  53.2167 161.6914 0002185  22.2922  23.4517 15.73197309  4901
STARLINK-3356           
1 51133U 22005AF  22041.58335648  .00011935  00000+0  89284-4 0  9996
2 51133  53.2171 162.9187 0002077  24.0911  47.3475 15.73213759  4862
STARLINK-3183           
1 51134U 22005AG  22041.82843227  .00053538  00000+0  38309-3 0  9997
2 51134  53.2123 160.9962 0002062  10.9999 349.1066 15.73220828  4913
STARLINK-3363           
1 51135U 22005AH  22041.58335648  .00017661  00000+0  12985-3 0  9993
2 51135  53.2190 162.9176 0002108  31.4111  40.6384 15.73224523  4868
STARLINK-3253           
1 51136U 22005AJ  22041.68287596 -.00277347  00000+0 -10767-2 0  9999
2 51136  53.2203 160.7709 0001249   6.7538 353.3505 15.87059908  4907
STARLINK-3180           
1 51137U 22005AK  22041.58335648  .00008119  00000+0  62176-4 0  9991
2 51137  53.2177 162.9134 0002096  25.1000  49.6095 15.73213569  4868
STARLINK-3177           
1 51138U 22005AL  22041.69758825  .00025235  00000+0  18341-3 0  9992
2 51138  53.2178 162.3500 0002299  30.8093 329.3062 15.73233225  4886
STARLINK-3172           
1 51139U 22005AM  22041.76056700  .00012703  00000+0  94784-4 0  9996
2 51139  53.2183 162.0333 0002322  40.5487 319.5706 15.73202440  4898
STARLINK-3175           
1 51140U 22005AN  22041.83335648  .00076422  00000+0  54452-3 0  9992
2 51140  53.2170 161.6777 0002330  24.5718  26.2457 15.73175344  4900
STARLINK-3179           
1 51141U 22005AP  22041.76033864  .00033475  00000+0  24163-3 0  9997
2 51141  53.2177 162.0302 0001749  24.4971 335.6132 15.73233191  4890
STARLINK-3369           
1 51142U 22005AQ  22041.57041541  .00021413  00000+0  15640-3 0  9997
2 51142  53.2167 162.9790 0002062  30.3323 329.7816 15.73228870  3740
STARLINK-3184           
1 51143U 22005AR  22041.76000737  .00043136  00000+0  30967-3 0  9996
2 51143  53.2179 162.0288 0003045  29.1043 331.0146 15.73235627  4891
STARLINK-3185           
1 51144U 22005AS  22041.76044498  .00017213  00000+0  12656-3 0  9991
2 51144  53.2181 162.0331 0001511  30.9868 329.1241 15.73246077  4890
STARLINK-3365           
1 51145U 22005AT  22041.58335648 -.00021069  00000+0 -14575-3 0  9990
2 51145  53.2171 162.9014 0002213  29.9082  49.7969 15.73247513  4868
STARLINK-3354           
1 51146U 22005AU  22041.83335648  .00079226  00000+0  56393-3 0  9999
2 51146  53.2160 161.6764 0002112  16.6597  35.3968 15.73184952  4909
STARLINK-3352           
1 51147U 22005AV  22041.83335648  .00031197  00000+0  22581-3 0  9997
2 51147  53.2166 161.6672 0002062  29.3223  25.9065 15.73205560  4907
STARLINK-3359           
1 51148U 22005AW  22041.58335648  .00018325  00000+0  13465-3 0  9999
2 51148  53.2184 162.9025 0001995  33.8226  46.5562 15.73208322  4866
STARLINK-3360           
1 51149U 22005AX  22041.58335648  .00015732  00000+0  11627-3 0  9997
2 51149  53.2171 162.8988 0002034  23.8528  57.0612 15.73205445  4865
STARLINK-3357           
1 51150U 22005AY  22041.58335648  .00002209  00000+0  20130-4 0  9994
2 51150  53.2167 162.9087 0002251  33.3787  44.3760 15.73242142  4865
STARLINK-3361           
1 51151U 22005AZ  22041.58335648  .00008322  00000+0  63578-4 0  9990
2 51151  53.2187 162.8956 0001983  21.9517  60.2767 15.73228407  4869
STARLINK-3364           
1 51152U 22005BA  22041.58335648  .00006631  00000+0  51561-4 0  9991
2 51152  53.2163 162.9003 0002024  23.4369  58.1220 15.73233666  4860
L-SAR 01A               
1 51284U 22007A   22041.75249190  .00026644  00000+0  28668-2 0  9990
2 51284  97.8080  50.9361 0002454  84.4291 275.7294 14.88454271  2340
CZ-4C R/B               
1 51285U 22007B   22041.54758736  .00005257  00000+0  23043-3 0  9999
2 51285  97.8461  51.4682 0123590 338.5136  21.0933 15.15771535  2351
CZ-4C DEB               
1 51286U 22007C   22034.95662599  .00313225  00000+0  54619-1 0  9996
2 51286  97.7966  43.7699 0127917 187.2623 183.8710 14.60977212  1314
ASCENT                  
1 51287U 21118E   22037.20605106 -.00000057  00000+0  00000+0 0  9991
2 51287   0.1323 113.8875 0002651 136.3445 187.7236  1.01234817   200
ELSA-D CLIENT           
1 51288U 21022AQ  22041.46472272  .00003243  00000+0  21967-3 0  9993
2 51288  97.5400 303.9894 0017742 208.5258 151.5000 15.07063883  2430
GASPACS                 
1 51439U 98067TB  22041.84829425  .00077302  00000+0  12545-2 0  9990
2 51439  51.6398 242.1069 0007187 128.3706 231.7931 15.52022784  2419
1998-067TC              
1 51440U 98067TC  22041.58774084  .00095260  00000+0  15084-2 0  9997
2 51440  51.6395 243.3674 0006877 129.8385 230.3211 15.52614528  2438
1998-067TD              
1 51441U 98067TD  22041.59468369  .00026725  00000+0  45800-3 0  9995
2 51441  51.6403 243.4128 0008247 131.5865 228.5832 15.50981945  2425
1998-067TE              
1 51442U 98067TE  22041.59320566  .00025633  00000+0  43731-3 0  9990
2 51442  51.6404 243.4030 0008444 137.5014 222.6630 15.51131761  2380
DAILI                   
1 51443U 98067TF  22041.58868884  .00057962  00000+0  94411-3 0  9991
2 51443  51.6402 243.3733 0009298 122.8442 237.3444 15.52025448  2345
CSG-2                   
1 51444U 22008A   22041.86413129  .00005241  00000+0  65803-3 0  9999
2 51444  97.8905 227.3724 0003327 114.2323 245.8107 14.82554268  1469
STARLINK-3167           
1 51460U 22010E   22041.73596514 -.00495481  90532-4 -11877-2 0  9992
2 51460  53.2157 138.4747 0036443 193.2756 166.7318 15.94474531  2342
